OSCAR 7 (AO-7)          
1 07530U 74089B   17266.56611814 -.00000046  00000-0 -10863-4 0  9991
2 07530 101.6428 233.3543 0012263 129.9172 345.8639 12.53628785961187
UOSAT 2 (UO-11)         
1 14781U 84021B   17266.54784930  .00000097  00000-0  18150-4 0  9993
2 14781  97.6873 308.5856 0007315 231.0375 129.0188 14.82932905783926
LUSAT (LO-19)           
1 20442U 90005G   17266.39513736  .00000017  00000-0  22300-4 0  9994
2 20442  98.5801 201.9331 0011021 213.4716 146.5772 14.32870708445626
EYESAT-1 (AO-27)        
1 22825U 93061C   17266.50000928 -.00000006  00000-0  15362-4 0  9992
2 22825  98.8240 233.3460 0009274  49.3457 310.8530 14.30006814251181
ITAMSAT (IO-26)         
1 22826U 93061D   17266.50846344 -.00000001  00000-0  17248-4 0  9993
2 22826  98.8183 233.4249 0009698  40.0161 320.1734 14.30336370251389
RADIO ROSTO (RS-15)     
1 23439U 94085A   17266.54768951 -.00000051  00000-0 -22489-3 0  9990
2 23439  64.8163  60.0756 0165294 228.8230 195.4990 11.27566359936502
JAS-2 (FO-29)           
1 24278U 96046B   17266.65958520 -.00000028  00000-0  43789-5 0  9997
2 24278  98.5468 136.7444 0351380  82.2238 281.8639 13.53078816 42194
TECHSAT 1B (GO-32)      
1 25397U 98043D   17266.45054857 -.00000009  00000-0  15208-4 0  9990
2 25397  98.6165 206.7466 0002422  80.4216 279.7236 14.23629029997554
ISS (ZARYA)             
1 25544U 98067A   17266.87898128  .00001687  00000-0  32619-4 0  9990
2 25544  51.6416 266.3305 0003952 317.7902 111.7096 15.54235211 77107
PCSAT (NO-44)           
1 26931U 01043C   17266.83191794 -.00000020  00000-0  24064-4 0  9996
2 26931  67.0514 196.6756 0006279 257.2689 102.7710 14.30474605834455
SAUDISAT 1C (SO-50)     
1 27607U 02058C   17266.22256427  .00000063  00000-0  29609-4 0  9998
2 27607  64.5557 185.9760 0033572  47.8757 312.5190 14.75364613793572
CUTE-1 (CO-55)          
1 27844U 03031E   17266.58023064  .00000049  00000-0  41909-4 0  9992
2 27844  98.6906 274.1584 0010834  65.7565 294.4743 14.22061124738268
CUBESAT XI-IV (CO-57)   
1 27848U 03031J   17266.60674243  .00000028  00000-0  32744-4 0  9994
2 27848  98.6998 274.4844 0010794  74.4017 285.8351 14.21672685738155
MOZHAYETS 4 (RS-22)     
1 27939U 03042A   17266.84991488  .00000144  00000-0  34445-4 0  9995
2 27939  97.9538  48.4924 0011618 273.4849 244.3728 14.66602356747779
CUBESAT XI-V (CO-58)    
1 28895U 05043F   17266.42722850  .00000170  00000-0  41421-4 0  9990
2 28895  97.8767  64.2582 0016663 188.3612 171.7316 14.63440027634624
CUTE-1.7+APD II (CO-65) 
1 32785U 08021C   17266.49431776  .00000252  00000-0  33058-4 0  9991
2 32785  97.5623 286.2568 0012651 196.1994 163.8820 14.87955139509442
DELFI-C3 (DO-64)        
1 32789U 08021G   17266.22495071  .00001734  00000-0  12555-3 0  9998
2 32789  97.5505 322.3578 0014211 125.0858 235.1703 15.05213875511511
SEEDS II (CO-66)        
1 32791U 08021J   17266.54245548  .00000434  00000-0  50020-4 0  9994
2 32791  97.5578 290.9666 0013446 179.5656 180.5576 14.90316455509790
YUBILEINY (RS-30)       
1 32953U 08025A   17266.79663734  .00000025  00000-0  10861-3 0  9990
2 32953  82.5064 178.3439 0020237  69.8783 290.4472 12.43079169423671
PRISM (HITOMI)          
1 33493U 09002B   17266.90460495  .00000920  00000-0  87861-4 0  9997
2 33493  98.1539 153.4363 0016572 113.7903 246.5057 14.95820935470533
KKS-1 (KISEKI)          
1 33499U 09002H   17266.56288063  .00000138  00000-0  28525-4 0  9997
2 33499  98.3419  74.8863 0010352  64.9330 295.2952 14.75229955465442
SWISSCUBE               
1 35932U 09051B   17266.81797446  .00000159  00000-0  47007-4 0  9992
2 35932  98.5102  47.1670 0006704 313.9234  46.1409 14.56054655424674
BEESAT                  
1 35933U 09051C   17266.38407287  .00000146  00000-0  43924-4 0  9996
2 35933  98.5139  48.0988 0005161 333.0912  27.0017 14.56169626424633
ITUPSAT 1               
1 35935U 09051E   17266.83914352  .00000117  00000-0  38084-4 0  9993
2 35935  98.5252  48.8175 0007338 321.6845  38.3830 14.55359344424582
XIWANG-1 (HOPE-1)       
1 36122U 09072B   17266.76679699 -.00000042  00000-0  16501-5 0  9998
2 36122 100.0953 288.6902 0007612  13.1877 346.9435 13.16341360373591
TISAT 1                 
1 36799U 10035E   17266.29581251  .00000634  00000-0  70952-4 0  9998
2 36799  98.0736  31.0805 0012491  11.2628 348.8867 14.90506437390198
JUGNU                   
1 37839U 11058B   17266.27813617  .00000329  00000-0  33620-4 0  9994
2 37839  19.9603 215.7060 0019023 184.0151 323.7304 14.12594060307471
SRMSAT                  
1 37841U 11058D   17266.33694266  .00000330  00000-0  36589-4 0  9990
2 37841  19.9715 259.0546 0012050  79.5667  54.3916 14.10584393307158
M-CUBED & EXP-1 PRIME   
1 37855U 11061F   17266.57259117  .00000884  00000-0  54006-4 0  9995
2 37855 101.7059 187.9586 0179820 150.7223 210.4211 15.03371914321106
HORYU 2                 
1 38340U 12025D   17266.56247518  .00000240  00000-0  43491-4 0  9999
2 38340  98.3785 273.9618 0011276 345.7287  14.3601 14.75400057277384
STRAND-1                
1 39090U 13009E   17266.54719597  .00000020  00000-0  22308-4 0  9994
2 39090  98.5453 111.0232 0009574  15.5970 344.5508 14.34984212239561
SOMP                    
1 39134U 13015E   17266.38308709  .00001919  00000-0  10163-3 0  9994
2 39134  64.8628 269.4184 0039067 248.3538 111.3425 15.18163864244389
BEESAT-3                
1 39135U 13015F   17266.50901638  .00001508  00000-0  87649-4 0  9997
2 39135  64.8684 279.0124 0034280 268.0100  91.7099 15.15863956243821
BEESAT-2                
1 39136U 13015G   17266.45371190  .00001385  00000-0  82437-4 0  9999
2 39136  64.8689 281.2792 0034235 268.2958  91.4246 15.15369741243774
CUBEBUG-1 (CAPITAN BETO)
1 39153U 13018D   17266.78724349  .00000260  00000-0  41034-4 0  9994
2 39153  97.9854 358.5603 0018450  89.7711 270.5615 14.80237395238175
ZACUBE-1 (TSHEPISOSAT)  
1 39417U 13066B   17266.54996808  .00000234  00000-0  36282-4 0  9995
2 39417  97.6205 303.9760 0058041 309.1035  50.5025 14.80771971207339
TRITON-1                
1 39427U 13066M   17266.58168027  .00000255  00000-0  48715-4 0  9991
2 39427  97.6373 275.3433 0115136  34.2284 326.6275 14.67514615205287
GOMX 1                  
1 39430U 13066Q   17266.52519916  .00000239  00000-0  51916-4 0  9995
2 39430  97.6713 258.0960 0153352  92.4547 269.4220 14.58921035204272
HUMSAT-D                
1 39433U 13066T   17266.74093009  .00000412  00000-0  46375-4 0  9998
2 39433  97.6428 326.9034 0029756 248.2077 111.5975 14.91550534208709
EAGLE 2                 
1 39436U 13066W   17265.84231631  .00028489  00000-0  65781-3 0  9991
2 39436  97.7133  16.8768 0008645  96.9209 263.3021 15.42464152211679
CUBEBUG-2 (LO-74)       
1 39440U 13066AA  17266.64597536  .00000238  00000-0  40448-4 0  9990
2 39440  97.6226 292.4832 0080165 341.9693  17.8677 14.75512993206616
FUNCUBE-1 (AO-73)       
1 39444U 13066AE  17266.68323210  .00000295  00000-0  43257-4 0  9998
2 39444  97.6220 305.2835 0057144 304.9749  54.6106 14.81518035206191
UWE-3                   
1 39446U 13066AG  17266.58352656  .00000225  00000-0  36960-4 0  9991
2 39446  97.6202 297.9021 0069494 325.9507  33.7255 14.78045288205141
SPROUT                  
1 39770U 14029E   17266.85802435  .00000919  00000-0  11023-3 0  9998
2 39770  97.8754   5.2844 0009389  14.3013 345.8458 14.86403992180790
UNISAT-6                
1 40012U 14033C   17266.59055509  .00000238  00000-0  43322-4 0  9999
2 40012  97.8417 147.1598 0058232 339.0287  20.8534 14.73674424175436
DUCHIFAT-1              
1 40021U 14033M   17266.75253646  .00000508  00000-0  58556-4 0  9994
2 40021  97.9130 180.0379 0012755 343.5589  16.5213 14.90001485177277
FUNCUBE-3 (EO-79)       
1 40025U 14033R   17266.76505057  .00000399  00000-0  48965-4 0  9996
2 40025  97.9060 177.6722 0012338 348.2072  11.8854 14.88499301177154
CHUBUSAT-1              
1 40300U 14070C   17266.85054071  .00000978  00000-0  46890-4 0  9996
2 40300  97.3907 344.9208 0022066 113.8043  23.1632 15.21059696159781
NUDT-PHONESAT           
1 40900U 15049B   17266.81267207  .00002533  00000-0  12090-3 0  9995
2 40900  97.4440 273.3685 0012302 236.9539 123.0514 15.19924138111431
ZDPS 2A                 
1 40901U 15049C   17266.82552828  .00001088  00000-0  59279-4 0  9998
2 40901  97.4596 272.4654 0012348 240.1037 119.8970 15.16466113111283
ZDPS 2B                 
1 40902U 15049D   17266.83157954  .00001015  00000-0  55765-4 0  9997
2 40902  97.4472 270.9607 0012473 236.8116 123.1921 15.16295221111270
XW-2A                   
1 40903U 15049E   17266.82451161  .00002377  00000-0  63171-4 0  9996
2 40903  97.4150 293.7359 0012849 270.5813  89.3960 15.39227481112812
KAITUO 1A               
1 40904U 15049F   17266.88305824  .00000863  00000-0  50143-4 0  9990
2 40904  97.4553 270.5835 0013143 238.2629 239.2100 15.14650641111188
2015-049G               
1 40905U 15049G   17266.83615121  .00000513  00000-0  32060-4 0  9990
2 40905  97.4539 269.0829 0014620 228.2960 131.7021 15.13661885111120
XW-2C                   
1 40906U 15049H   17266.81065113  .00000799  00000-0  46631-4 0  9994
2 40906  97.4573 270.3498 0013856 228.9859 131.0176 15.14718441111160
XW-2D                   
1 40907U 15049J   17266.85305148  .00000873  00000-0  50451-4 0  9992
2 40907  97.4543 270.1307 0013261 226.4764 133.5367 15.14834913111176
LILACSAT 2              
1 40908U 15049K   17266.81910513  .00000475  00000-0  30309-4 0  9995
2 40908  97.4647 269.7763 0014888 226.1653 133.8348 15.13228704111088
XW-2F                   
1 40910U 15049M   17266.79578415  .00001269  00000-0  69813-4 0  9990
2 40910  97.4560 270.9184 0014079 223.7838 136.2279 15.15800578111083
XW-2B                   
1 40911U 15049N   17266.79565648  .00000832  00000-0  48308-4 0  9996
2 40911  97.4585 270.4994 0013163 227.1320 132.8807 15.14791959111060
